ONEWEB-0340             
1 49206U 21083W   25020.58845860  .00000010  00000+0 -85838-5 0  9996
2 49206  87.9079  77.4241 0001901  94.9976 265.1373 13.18683610162411
ONEWEB-0341             
1 49207U 21083X   25020.59635661 -.00001010  00000+0 -25938-2 0  9998
2 49207  87.9079  77.4338 0002500  98.8154 261.3261 13.18690801162432
ONEWEB-0342             
1 49208U 21083Y   25020.47738847  .00000063  00000+0  12270-3 0  9997
2 49208  87.9248  16.4607 0001734  91.7936 268.3396 13.20774025169102
ONEWEB-0343             
1 49209U 21083Z   25020.59162993 -.00000002  00000+0 -38165-4 0  9991
2 49209  87.9071  77.4291 0002453 107.3361 252.8039 13.18685002162487
ONEWEB-0344             
1 49210U 21083AA  25020.57001979  .00000240  00000+0  62185-3 0  9997
2 49210  87.8895  62.1931 0002236  92.2182 267.9203 13.13467741163604
ONEWEB-0345             
1 49211U 21083AB  25020.58747618 -.00000164  00000+0 -48466-3 0  9999
2 49211  87.8892  62.1582 0002306  92.3720 267.7673 13.13469452163612
ONEWEB-0346             
1 49212U 21083AC  25020.60110381 -.00000087  00000+0 -25264-3 0  9999
2 49212  87.9077  77.4423 0001789  88.0746 272.0591 13.18683117162423
ONEWEB-0348             
1 49213U 21083AD  25020.46792784  .00000132  00000+0  29250-3 0  9995
2 49213  87.9255  16.4553 0002200  73.6531 286.4844 13.20773475169135
